sat_config_name,tle_name,norad_id,horizons_id,epoch_tle,t_obs,delta_t_min,incl_deg,raan_deg,ecc,argp_deg,M_deg,mean_motion_rev_per_day,x_sgp4,y_sgp4,z_sgp4,vx_sgp4,vy_sgp4,vz_sgp4,x_true,y_true,z_true,vx_true,vy_true,vz_true,err_x,err_y,err_z,err_vx,err_vy,err_vz,err_norm,horizons_ok,line1,line2
CHANDRA,CXO,25867,-151,2025-11-29T09:28:09.054336+00:00,2025-11-28T14:08:09.054336+00:00,-1160.0,52.7584,123.0489,0.8164697,310.7158,0.2585,0.37803381,18115.176121219647,-114573.13887376346,61388.88595615467,0.4718278098568661,0.45202878375692224,-0.844944355591591,18129.191460329894,-114570.93533564798,61370.547301802784,0.47118728303657015,0.4527595202186809,-0.8452477645729355,-14.015339110246714,-2.2035381154710194,18.338654351886362,0.0006405268202959724,-0.0007307364617586409,0.00030340898134451066,23.186020659861093,True,1 25867U 99040B   25333.39454924  .00000722  00000+0  00000+0 0  9995,2 25867  52.7584 123.0489 8164697 310.7158   0.2585  0.37803381 16565
CHANDRA,CXO,25867,-151,2025-11-29T09:28:09.054336+00:00,2025-11-28T14:13:09.054336+00:00,-1155.0,52.7584,123.0489,0.8164697,310.7158,0.2585,0.37803381,18256.486399658206,-114436.51394768452,61134.78658794574,0.4708641011232672,0.45810336425550136,-0.8481963348740805,18270.403147629957,-114434.19666021799,61116.48517904462,0.4702219711929221,0.4588355548011382,-0.8485002812277025,-13.916747971750738,-2.3172874665324343,18.30140890111943,0.0006421299303451256,-0.0007321905456368349,0.0003039463536219644,23.10816442467359,True,1 25867U 99040B   25333.39454924  .00000722  00000+0  00000+0 0  9995,2 25867  52.7584 123.0489 8164697 310.7158   0.2585  0.37803381 16565
CHANDRA,CXO,25867,-151,2025-11-29T09:28:09.054336+00:00,2025-11-28T14:18:09.054336+00:00,-1150.0,52.7584,123.0489,0.8164697,310.7158,0.2585,0.37803381,18397.50587090079,-114298.06260284504,60879.71037033409,0.4698880138000532,0.4642011953399052,-0.8514511006462254,18411.32340798694,-114295.63167682827,60861.44685160197,0.46924428886619857,0.46493482766638494,-0.8517555754173523,-13.817537086149969,-2.4309260167647153,18.263518732121156,0.0006437249338546169,-0.0007336323264797162,0.0003044747711268281,23.030194287166875,True,1 25867U 99040B   25333.39454924  .00000722  00000+0  00000+0 0  9995,2 25867  52.7584 123.0489 8164697 310.7158   0.2585  0.37803381 16565
CHANDRA,CXO,25867,-151,2025-11-29T09:28:09.054336+00:00,2025-11-28T14:23:09.054336+00:00,-1145.0,52.7584,123.0489,0.8164697,310.7158,0.2585,0.37803381,18538.23080165401,-114157.77781800303,60623.65645962457,0.46889941709444416,0.47032254523312367,-0.854708698407852,18551.94847293825,-114155.23341128853,60605.43154795303,0.46825410558669933,0.4710576052804924,-0.8550136916878532,-13.717671284241078,-2.544406714499928,18.22491167154658,0.0006453115077448279,-0.0007350600473687297,0.00030499328000122006,22.952035126039682,True,1 25867U 99040B   25333.39454924  .00000722  00000+0  00000+0 0  9995,2 25867  52.7584 123.0489 8164697 310.7158   0.2585  0.37803381 16565
CHANDRA,CXO,25867,-151,2025-11-29T09:28:09.054336+00:00,2025-11-28T14:28:09.054336+00:00,-1140.0,52.7584,123.0489,0.8164697,310.7158,0.2585,0.37803381,18678.657419032552,-114015.65249083628,60366.62399846521,0.46789817785343374,0.4764676858762041,-0.8579691736823497,18692.27460991007,-114012.99473365485,60348.43834597272,0.46725128799714816,0.47720416110174224,-0.8582746763538952,-13.617190877517714,-2.6577571814268595,18.185652492495137,0.0006468898562855818,-0.0007364752255381579,0.00030550267154549893,22.873773567296944,True,1 25867U 99040B   25333.39454924  .00000722  00000+0  00000+0 0  9995,2 25867  52.7584 123.0489 8164697 310.7158   0.2585  0.37803381 16565
CHANDRA,CXO,25867,-151,2025-11-29T09:28:09.054336+00:00,2025-11-28T14:33:09.054336+00:00,-1135.0,52.7584,123.0489,0.8164697,310.7158,0.2585,0.37803381,18818.781909822203,-113871.6794368184,60108.61211584007,0.4668841605148382,0.4826368930001415,-0.8612325720134218,18832.297970780408,-113868.90850758448,60090.466447324594,0.4662357008652764,0.4833747690900165,-0.8615385740038717,-13.516060958205344,-2.7709292339277454,18.145668515477155,0.0006484596495618389,-0.000737876089874967,0.00030600199044983345,22.795333700539175,True,1 25867U 99040B   25333.39454924  .00000722  00000+0  00000+0 0  9995,2 25867  52.7584 123.0489 8164697 310.7158   0.2585  0.37803381 16565
CHANDRA,CXO,25867,-151,2025-11-29T09:28:09.054336+00:00,2025-11-28T14:38:09.054336+00:00,-1130.0,52.7584,123.0489,0.8164697,310.7158,0.2585,0.37803381,18958.60041976925,-113725.85138806756,59849.61992706352,0.46585722705689236,0.48883044619960214,-0.8644989389615777,18972.014722918953,-113722.96745633811,59831.51493664078,0.4652072060967067,0.4895697095399579,-0.8648054305551847,-13.41430314970421,-2.883931729447795,18.10499042274023,0.0006500209601856821,-0.0007392633403557336,0.0003064915936069612,22.716761860348747,True,1 25867U 99040B   25333.39454924  .00000722  00000+0  00000+0 0  9995,2 25867  52.7584 123.0489 8164697 310.7158   0.2585  0.37803381 16565
CHANDRA,CXO,25867,-151,2025-11-29T09:28:09.054336+00:00,2025-11-28T14:43:09.054336+00:00,-1125.0,52.7584,123.0489,0.8164697,310.7158,0.2585,0.37803381,19098.109052811207,-113578.16099217843,59589.64653377668,0.4648172369467094,0.49504862900819663,-0.8677683201004037,19111.420991603274,-113575.16421792386,59571.58288468687,0.46416566308048474,0.4957892666892273,-0.8680752919357266,-13.31193879206694,-2.9967742545704823,18.063649089810497,0.000651573866224664,-0.0007406376810306647,0.00030697183532291117,22.638104796479865,True,1 25867U 99040B   25333.39454924  .00000722  00000+0  00000+0 0  9995,2 25867  52.7584 123.0489 8164697 310.7158   0.2585  0.37803381 16565
CHANDRA,CXO,25867,-151,2025-11-29T09:28:09.054336+00:00,2025-11-28T14:48:09.054336+00:00,-1120.0,52.7584,123.0489,0.8164697,310.7158,0.2585,0.37803381,19237.303870345822,-113428.60081102335,59328.69102394291,0.46376404708713753,0.5012917289757466,-0.871040761012559,19250.51280365348,-113425.49140417766,59310.66945297554,0.4631109290606741,0.5020337262919934,-0.8713482027695838,-13.208933307658299,-3.109406845687772,18.0215709673721,0.0006531180264634506,-0.0007419973162468008,0.0003074417570247956,22.55928523225423,True,1 25867U 99040B   25333.39454924  .00000722  00000+0  00000+0 0  9995,2 25867  52.7584 123.0489 8164697 310.7158   0.2585  0.37803381 16565
CHANDRA,CXO,25867,-151,2025-11-29T09:28:09.054336+00:00,2025-11-28T14:53:09.054336+00:00,-1115.0,52.7584,123.0489,0.8164697,310.7158,0.2585,0.37803381,19376.180890411535,-113277.16331954194,59066.75247184664,0.4626975117625337,0.5075600377470628,-0.8743163072855157,19389.286217343273,-113273.94146024225,59048.77364955735,0.4620428581003222,0.5083033815414711,-0.8746242094415215,-13.105326931738091,-3.221859299694188,17.978822289289383,0.0006546536622115129,-0.0007433437944083243,0.0003079021560058459,22.48039195042236,True,1 25867U 99040B   25333.39454924  .00000722  00000+0  00000+0 0  9995,2 25867  52.7584 123.0489 8164697 310.7158   0.2585  0.37803381 16565
CHANDRA,CXO,25867,-151,2025-11-29T09:28:09.054336+00:00,2025-11-28T14:58:09.054336+00:00,-1110.0,52.7584,123.0489,0.8164697,310.7158,0.2585,0.37803381,19514.736086959845,-113123.84090448816,58803.8299380924,0.4616174825826046,0.5138538511430495,-0.8775950045070176,19527.737172103796,-113120.50682421568,58785.89460947173,0.46096130215941,0.5145985264385833,-0.8779033565745816,-13.001085143951059,-3.334080272470601,17.93532862066786,0.0006561804231945967,-0.0007446752955337921,0.0003083520675640772,22.40134636388827,True,1 25867U 99040B   25333.39454924  .00000722  00000+0  00000+0 0  9995,2 25867  52.7584 123.0489 8164697 310.7158   0.2585  0.37803381 16565
CHANDRA,CXO,25867,-151,2025-11-29T09:28:09.054336+00:00,2025-11-28T15:03:09.054336+00:00,-1105.0,52.7584,123.0489,0.8164697,310.7158,0.2585,0.37803381,19652.965388947134,-112968.62586318089,58539.92246960496,0.46052380842548307,0.5201734692430595,-0.8808768982602483,19665.861636977283,-112965.17976287343,58522.0313130483,0.45986610988855386,0.5209194626186449,-0.8811856905489869,-12.896248030148854,-3.4461003074538894,17.891156556659553,0.0006576985369292077,-0.000745993375585341,0.00030879228873859077,22.322237869869905,True,1 25867U 99040B   25333.39454924  .00000722  00000+0  00000+0 0  9995,2 25867  52.7584 123.0489 8164697 310.7158   0.2585  0.37803381 16565
CHANDRA,CXO,25867,-151,2025-11-29T09:28:09.054336+00:00,2025-11-28T15:08:09.054336+00:00,-1100.0,52.7584,123.0489,0.8164697,310.7158,0.2585,0.37803381,19790.86467959576,-112811.51040219753,58275.029099632295,0.45941633537843496,0.5265191964699858,-0.8841620341186955,19803.655461090555,-112807.95253517193,58257.18286824644,0.4587571277318646,0.5272664926746631,-0.8844712559750234,-12.790781494793919,-3.5578670255927136,17.84623138585448,0.0006592076465703478,-0.0007472962046772835,0.00030922185632786814,22.24298729255628,True,1 25867U 99040B   25333.39454924  .00000722  00000+0  00000+0 0  9995,2 25867  52.7584 123.0489 8164697 310.7158   0.2585  0.37803381 16565
CHANDRA,CXO,25867,-151,2025-11-29T09:28:09.054336+00:00,2025-11-28T15:13:09.054336+00:00,-1095.0,52.7584,123.0489,0.8164697,310.7158,0.2585,0.37803381,19928.429795509936,-112652.48663606326,58009.14884774852,0.4582949066775391,0.5328913416768788,-0.8874504576407038,19941.11452088883,-112648.81722440767,57991.34822777554,0.45763419869199107,0.5336399270209843,-0.8877600992064671,-12.684725378894655,-3.669411655588192,17.800619972978893,0.0006607079855480147,-0.0007485853441054902,0.0003096415657632967,22.16368451450606,True,1 25867U 99040B   25333.39454924  .00000722  00000+0  00000+0 0  9995,2 25867  52.7584 123.0489 8164697 310.7158   0.2585  0.37803381 16565
